[{"OBJECT_NAME":"STARLINK-6288","OBJECT_ID":"2023-061AA","EPOCH":"2026-03-08T15:23:44.287584","MEAN_MOTION":15.02531108,"ECCENTRICITY":0.00011735,"INCLINATION":43.0027,"RA_OF_ASC_NODE":190.4528,"ARG_OF_PERICENTER":273.0926,"MEAN_ANOMALY":86.9782,"EPHEMERIS_TYPE":0,"CLASSIFICATION_TYPE":"U","NORAD_CAT_ID":56398,"ELEMENT_SET_NO":999,"REV_AT_EPOCH":15674,"BSTAR":-1.2824897e-5,"MEAN_MOTION_DOT":-3.77e-6,"MEAN_MOTION_DDOT":0},{"OBJECT_NAME":"OBJECT C","OBJECT_ID":"2025-292C","EPOCH":"2026-03-09T21:40:07.439232","MEAN_MOTION":15.0561637,"ECCENTRICITY":0.00142936,"INCLINATION":97.6364,"RA_OF_ASC_NODE":145.6037,"ARG_OF_PERICENTER":339.8589,"MEAN_ANOMALY":20.2072,"EPHEMERIS_TYPE":0,"CLASSIFICATION_TYPE":"U","NORAD_CAT_ID":66995,"ELEMENT_SET_NO":999,"REV_AT_EPOCH":1350,"BSTAR":0.00047642755,"MEAN_MOTION_DOT":6.828e-5,"MEAN_MOTION_DDOT":0}]
